{"type": "FeatureCollection", "features": [ {"type": "Feature", "properties": {"norad_id": 42738, "name": "QZS-2 (QZSS/PRN 194)", "group": "gnss", "lat": 35.66212750614391, "lon": 6.141919819065509, "alt_km": 38622.12739926497, "timestamp": "2025-12-18T08:58:43.653740+00:00", "meta": {"OBJECT_NAME": "QZS-2 (QZSS/PRN 194)", "OBJECT_ID": "2017-028A", "EPOCH": "2025-12-17T13:57:26.416800", "MEAN_MOTION": 1.00281777, "ECCENTRICITY": 0.07567645, "INCLINATION": 39.7061, "RA_OF_ASC_NODE": 245.8118, "ARG_OF_PERICENTER": 269.528, "MEAN_ANOMALY": 282.4506, "EPHEMERIS_TYPE": 0, "CLASSIFICATION_TYPE": "U", "NORAD_CAT_ID": 42738, "ELEMENT_SET_NO": 999, "REV_AT_EPOCH": 580, "BSTAR": 0, "MEAN_MOTION_DOT": -1.35e-06, "MEAN_MOTION_DDOT": 0}, "tle": {"line1": "1 42738U 17028A   25351.58155575 -.00000135  00000+0  00000+0 0  9997", "line2": "2 42738  39.7061 245.8118 0756764 269.5280 282.4506  1.00281777  5801"}}, "geometry": {"type": "Point", "coordinates": [6.141919819065509, 35.66212750614391]}}, {"type": "Feature", "properties": {"norad_id": 42917, "name": "QZS-3 (QZSS/PRN 199)", "group": "gnss", "lat": 4.897802562756566e-05, "lon": -11.044081595053452, "alt_km": 35785.13145666727, "timestamp": "2025-12-18T08:58:43.653752+00:00", "meta": {"OBJECT_NAME": "QZS-3 (QZSS/PRN 199)", "OBJECT_ID": "2017-048A", "EPOCH": "2025-12-17T20:46:45.234048", "MEAN_MOTION": 1.00267333, "ECCENTRICITY": 0.00017973, "INCLINATION": 0.025, "RA_OF_ASC_NODE": 193.4979, "ARG_OF_PERICENTER": 82.9691, "MEAN_ANOMALY": 248.9948, "EPHEMERIS_TYPE": 0, "CLASSIFICATION_TYPE": "U", "NORAD_CAT_ID": 42917, "ELEMENT_SET_NO": 999, "REV_AT_EPOCH": 3044, "BSTAR": 0, "MEAN_MOTION_DOT": 0, "MEAN_MOTION_DDOT": 0}, "tle": {"line1": "1 42917U 17048A   25351.86580132  .00000000  00000+0  00000+0 0  9990", "line2": "2 42917   0.0250 193.4979 0001797  82.9691 248.9948  1.00267333 30443"}}, "geometry": {"type": "Point", "coordinates": [-11.044081595053452, 4.897802562756566e-05]}}, {"type": "Feature", "properties": {"norad_id": 42939, "name": "COSMOS 2522 (752)", "group": "gnss", "lat": -54.28280740312981, "lon": 155.45565800801825, "alt_km": 19130.701817227033, "timestamp": "2025-12-18T08:58:43.653763+00:00", "meta": {"OBJECT_NAME": "COSMOS 2522 (752)", "OBJECT_ID": "2017-055A", "EPOCH": "2025-12-16T02:41:16.915776", "MEAN_MOTION": 2.13102063, "ECCENTRICITY": 0.00063883, "INCLINATION": 64.0761, "RA_OF_ASC_NODE": 198.1142, "ARG_OF_PERICENTER": 224.0896, "MEAN_ANOMALY": 135.9399, "EPHEMERIS_TYPE": 0, "CLASSIFICATION_TYPE": "U", "NORAD_CAT_ID": 42939, "ELEMENT_SET_NO": 999, "REV_AT_EPOCH": 6407, "BSTAR": 0, "MEAN_MOTION_DOT": 1.09e-06, "MEAN_MOTION_DDOT": 0}, "tle": {"line1": "1 42939U 17055A   25350.11200134  .00000109  00000+0  00000+0 0  9990", "line2": "2 42939  64.0761 198.1142 0006388 224.0896 135.9399  2.13102063 64079"}}, "geometry": {"type": "Point", "coordinates": [155.45565800801825, -54.28280740312981]}}, {"type": "Feature", "properties": {"norad_id": 42965, "name": "QZS-4 (QZSS/PRN 195)", "group": "gnss", "lat": 13.006881003863716, "lon": 1.645408194571145, "alt_km": 36591.42351766047, "timestamp": "2025-12-18T08:58:43.653779+00:00", "meta": {"OBJECT_NAME": "QZS-4 (QZSS/PRN 195)", "OBJECT_ID": "2017-062A", "EPOCH": "2025-12-17T20:46:45.234048", "MEAN_MOTION": 1.00251746, "ECCENTRICITY": 0.07515485, "INCLINATION": 40.2233, "RA_OF_ASC_NODE": 345.8056, "ARG_OF_PERICENTER": 271.6564, "MEAN_ANOMALY": 276.9432, "EPHEMERIS_TYPE": 0, "CLASSIFICATION_TYPE": "U", "NORAD_CAT_ID": 42965, "ELEMENT_SET_NO": 999, "REV_AT_EPOCH": 2998, "BSTAR": 0, "MEAN_MOTION_DOT": -3.41e-06, "MEAN_MOTION_DDOT": 0}, "tle": {"line1": "1 42965U 17062A   25351.86580132 -.00000341  00000+0  00000+0 0  9998", "line2": "2 42965  40.2233 345.8056 0751548 271.6564 276.9432  1.00251746 29981"}}, "geometry": {"type": "Point", "coordinates": [1.645408194571145, 13.006881003863716]}}, {"type": "Feature", "properties": {"norad_id": 43001, "name": "BEIDOU-3 M1 (C19)", "group": "gnss", "lat": 39.272161093304746, "lon": -143.62650600758712, "alt_km": 21549.18221583333, "timestamp": "2025-12-18T08:58:43.653791+00:00", "meta": {"OBJECT_NAME": "BEIDOU-3 M1 (C19)", "OBJECT_ID": "2017-069A", "EPOCH": "2025-12-17T02:31:31.300896", "MEAN_MOTION": 1.86231373, "ECCENTRICITY": 0.00093891, "INCLINATION": 56.5309, "RA_OF_ASC_NODE": 69.0894, "ARG_OF_PERICENTER": 302.653, "MEAN_ANOMALY": 57.2803, "EPHEMERIS_TYPE": 0, "CLASSIFICATION_TYPE": "U", "NORAD_CAT_ID": 43001, "ELEMENT_SET_NO": 999, "REV_AT_EPOCH": 5521, "BSTAR": 0, "MEAN_MOTION_DOT": -7.5e-07, "MEAN_MOTION_DDOT": 0}, "tle": {"line1": "1 43001U 17069A   25351.10522339 -.00000075  00000+0  00000+0 0  9993", "line2": "2 43001  56.5309  69.0894 0009389 302.6530  57.2803  1.86231373 55214"}}, "geometry": {"type": "Point", "coordinates": [-143.62650600758712, 39.272161093304746]}}, {"type": "Feature", "properties": {"norad_id": 43002, "name": "BEIDOU-3 M2 (C20)", "group": "gnss", "lat": 6.646568452780648, "lon": -115.31717808592435, "alt_km": 21544.305571654942, "timestamp": "2025-12-18T08:58:43.653804+00:00", "meta": {"OBJECT_NAME": "BEIDOU-3 M2 (C20)", "OBJECT_ID": "2017-069B", "EPOCH": "2025-12-17T13:55:59.807712", "MEAN_MOTION": 1.86230965, "ECCENTRICITY": 0.00064552, "INCLINATION": 56.531, "RA_OF_ASC_NODE": 69.1097, "ARG_OF_PERICENTER": 330.9303, "MEAN_ANOMALY": 29.0595, "EPHEMERIS_TYPE": 0, "CLASSIFICATION_TYPE": "U", "NORAD_CAT_ID": 43002, "ELEMENT_SET_NO": 999, "REV_AT_EPOCH": 5521, "BSTAR": 0, "MEAN_MOTION_DOT": -7.1e-07, "MEAN_MOTION_DDOT": 0}, "tle": {"line1": "1 43002U 17069B   25351.58055333 -.00000071  00000+0  00000+0 0  9997", "line2": "2 43002  56.5310  69.1097 0006455 330.9303  29.0595  1.86230965 55217"}}, "geometry": {"type": "Point", "coordinates": [-115.31717808592435, 6.646568452780648]}}, {"type": "Feature", "properties": {"norad_id": 43055, "name": "GSAT0215 (GALILEO 19)", "group": "gnss", "lat": 12.81763783662616, "lon": -124.38390767419641, "alt_km": 23217.674357267042, "timestamp": "2025-12-18T08:58:43.653815+00:00", "meta": {"OBJECT_NAME": "GSAT0215 (GALILEO 19)", "OBJECT_ID": "2017-079A", "EPOCH": "2025-12-17T04:12:33.509376", "MEAN_MOTION": 1.70474116, "ECCENTRICITY": 0.00012477, "INCLINATION": 55.1286, "RA_OF_ASC_NODE": 226.5156, "ARG_OF_PERICENTER": 341.6592, "MEAN_ANOMALY": 18.4365, "EPHEMERIS_TYPE": 0, "CLASSIFICATION_TYPE": "U", "NORAD_CAT_ID": 43055, "ELEMENT_SET_NO": 999, "REV_AT_EPOCH": 4988, "BSTAR": 0, "MEAN_MOTION_DOT": 5.5e-07, "MEAN_MOTION_DDOT": 0}, "tle": {"line1": "1 43055U 17079A   25351.17538784  .00000055  00000+0  00000+0 0  9998", "line2": "2 43055  55.1286 226.5156 0001247 341.6592  18.4365  1.70474116 49884"}}, "geometry": {"type": "Point", "coordinates": [-124.38390767419641, 12.81763783662616]}}, {"type": "Feature", "properties": {"norad_id": 43056, "name": "GSAT0216 (GALILEO 20)", "group": "gnss", "lat": -13.816792408094672, "lon": 56.361270592077716, "alt_km": 23228.326232622792, "timestamp": "2025-12-18T08:58:43.653826+00:00", "meta": {"OBJECT_NAME": "GSAT0216 (GALILEO 20)", "OBJECT_ID": "2017-079B", "EPOCH": "2025-12-16T21:07:19.515072", "MEAN_MOTION": 1.70474167, "ECCENTRICITY": 0.00024195, "INCLINATION": 55.129, "RA_OF_ASC_NODE": 226.5236, "ARG_OF_PERICENTER": 322.2527, "MEAN_ANOMALY": 37.829, "EPHEMERIS_TYPE": 0, "CLASSIFICATION_TYPE": "U", "NORAD_CAT_ID": 43056, "ELEMENT_SET_NO": 999, "REV_AT_EPOCH": 4989, "BSTAR": 0, "MEAN_MOTION_DOT": 5.3e-07, "MEAN_MOTION_DDOT": 0}, "tle": {"line1": "1 43056U 17079B   25350.88008698  .00000053  00000+0  00000+0 0  9990", "line2": "2 43056  55.1290 226.5236 0002419 322.2527  37.8290  1.70474167 49893"}}, "geometry": {"type": "Point", "coordinates": [56.361270592077716, -13.816792408094672]}}, {"type": "Feature", "properties": {"norad_id": 43057, "name": "GSAT0217 (GALILEO 21)", "group": "gnss", "lat": 46.13514891176624, "lon": -87.03919550387064, "alt_km": 23214.414004644226, "timestamp": "2025-12-18T08:58:43.653839+00:00", "meta": {"OBJECT_NAME": "GSAT0217 (GALILEO 21)", "OBJECT_ID": "2017-079C", "EPOCH": "2025-12-16T12:20:28.313376", "MEAN_MOTION": 1.70474073, "ECCENTRICITY": 0.00027918, "INCLINATION": 55.1271, "RA_OF_ASC_NODE": 226.5317, "ARG_OF_PERICENTER": 347.0782, "MEAN_ANOMALY": 13.0112, "EPHEMERIS_TYPE": 0, "CLASSIFICATION_TYPE": "U", "NORAD_CAT_ID": 43057, "ELEMENT_SET_NO": 999, "REV_AT_EPOCH": 4987, "BSTAR": 0, "MEAN_MOTION_DOT": 5e-07, "MEAN_MOTION_DDOT": 0}, "tle": {"line1": "1 43057U 17079C   25350.51421659  .00000050  00000+0  00000+0 0  9994", "line2": "2 43057  55.1271 226.5317 0002791 347.0782  13.0112  1.70474073 49877"}}, "geometry": {"type": "Point", "coordinates": [-87.03919550387064, 46.13514891176624]}}, {"type": "Feature", "properties": {"norad_id": 43058, "name": "GSAT0218 (GALILEO 22)", "group": "gnss", "lat": -51.91620570873543, "lon": 163.71824859142131, "alt_km": 23219.991082326123, "timestamp": "2025-12-18T08:58:43.653852+00:00", "meta": {"OBJECT_NAME": "GSAT0218 (GALILEO 22)", "OBJECT_ID": "2017-079D", "EPOCH": "2025-12-12T15:04:31.769472", "MEAN_MOTION": 1.70474063, "ECCENTRICITY": 0.00028411, "INCLINATION": 55.1287, "RA_OF_ASC_NODE": 226.6365, "ARG_OF_PERICENTER": 306.3289, "MEAN_ANOMALY": 53.7237, "EPHEMERIS_TYPE": 0, "CLASSIFICATION_TYPE": "U", "NORAD_CAT_ID": 43058, "ELEMENT_SET_NO": 999, "REV_AT_EPOCH": 4983, "BSTAR": 0, "MEAN_MOTION_DOT": 1.7e-07, "MEAN_MOTION_DDOT": 0}, "tle": {"line1": "1 43058U 17079D   25346.62814548  .00000017  00000+0  00000+0 0  9998", "line2": "2 43058  55.1287 226.6365 0002841 306.3289  53.7237  1.70474063 49839"}}, "geometry": {"type": "Point", "coordinates": [163.71824859142131, -51.91620570873543]}}]}